[{"OBJECT_NAME":"OBJECT F","OBJECT_ID":"2022-023F","EPOCH":"2026-03-09T23:55:35.397408","MEAN_MOTION":15.18257694,"ECCENTRICITY":0.01194645,"INCLINATION":63.4547,"RA_OF_ASC_NODE":250.628,"ARG_OF_PERICENTER":343.8947,"MEAN_ANOMALY":15.838,"EPHEMERIS_TYPE":0,"CLASSIFICATION_TYPE":"U","NORAD_CAT_ID":51951,"ELEMENT_SET_NO":999,"REV_AT_EPOCH":22265,"BSTAR":0.00028900174,"MEAN_MOTION_DOT":6.929e-5,"MEAN_MOTION_DDOT":0},{"OBJECT_NAME":"FENGYUN 1C DEB","OBJECT_ID":"1999-025UF","EPOCH":"2026-03-09T22:33:52.472160","MEAN_MOTION":14.89836885,"ECCENTRICITY":0.00149546,"INCLINATION":98.7769,"RA_OF_ASC_NODE":231.5706,"ARG_OF_PERICENTER":146.9126,"MEAN_ANOMALY":336.9385,"EPHEMERIS_TYPE":0,"CLASSIFICATION_TYPE":"U","NORAD_CAT_ID":30174,"ELEMENT_SET_NO":999,"REV_AT_EPOCH":99662,"BSTAR":0.0060884944,"MEAN_MOTION_DOT":0.00059008,"MEAN_MOTION_DDOT":0}]
